STARLINK-34956          
1 65174U 25175A   26046.61298807  .00004566  00000+0  32043-3 0  9997
2 65174  97.6010 280.8223 0002079  93.1095 267.0369 15.05654460 29288
STARLINK-34949          
1 65175U 25175B   26046.61023926  .00010097  00000+0  70294-3 0  9992
2 65175  97.6020 280.8284 0002639  91.2702 268.8827 15.05650455 29326
STARLINK-34707          
1 65176U 25175C   26046.60746652  .00007770  00000+0  54219-3 0  9993
2 65176  97.6016 280.8292 0002220 100.9979 259.1497 15.05644141 29311
STARLINK-34967          
1 65177U 25175D   26046.60468465  .00003158  00000+0  22295-3 0  9992
2 65177  97.6019 280.8340 0001955  71.7065 288.4374 15.05654209 29319
STARLINK-34929          
1 65178U 25175E   26046.60191307  .00005101  00000+0  35738-3 0  9997
2 65178  97.6022 280.8372 0001312  95.5406 264.5970 15.05660111 29315
STARLINK-34932          
1 65179U 25175F   26046.92866612  .00007306  00000+0  50980-3 0  9996
2 65179  97.6026 281.1730 0001787  86.7059 273.4372 15.05664858 29366
STARLINK-34862          
1 65180U 25175G   26046.59362485  .00008390  00000+0  58514-3 0  9995
2 65180  97.6030 280.8489 0002086  83.4598 276.6866 15.05638264 29315
STARLINK-34942          
1 65181U 25175H   26046.93144063  .00003888  00000+0  27349-3 0  9993
2 65181  97.6023 281.1691 0001716  83.8281 276.3141 15.05655026 29339
STARLINK-34944          
1 65182U 25175J   26046.59084499  .00007583  00000+0  52927-3 0  9998
2 65182  97.6032 280.8529 0002083  85.7480 274.3985 15.05643484 29313
STARLINK-34939          
1 65183U 25175K   26046.58807162  .00004099  00000+0  28801-3 0  9991
2 65183  97.6039 280.8567 0002454  81.5672 278.5833 15.05661407 29281
STARLINK-34947          
1 65184U 25175L   26046.58530627  .00004530  00000+0  31788-3 0  9999
2 65184  97.6039 280.8601 0003147  70.6220 289.5347 15.05655351 29316
STARLINK-34945          
1 65185U 25175M   26046.58253105  .00007936  00000+0  55332-3 0  9997
2 65185  97.6048 280.8643 0002373  79.1334 281.0160 15.05667198 29315
STARLINK-34965          
1 65186U 25175N   26046.57700911  .00011044  00000+0  76824-3 0  9993
2 65186  97.6039 280.8725 0002115  88.9734 271.1735 15.05657698 29315
STARLINK-34915          
1 65187U 25175P   26046.57977842  .00007638  00000+0  53265-3 0  9991
2 65187  97.6041 280.8685 0002563  69.9574 290.1928 15.05672364 29314
STARLINK-34972          
1 65188U 25175Q   26046.70714718  .00004739  00000+0  33239-3 0  9996
2 65188  97.6040 281.0073 0002727  77.3051 282.8481 15.05653908 29307
STARLINK-34866          
1 65189U 25175R   26046.57146414  .00004078  00000+0  28663-3 0  9995
2 65189  97.6037 280.8799 0002693  86.8830 273.2704 15.05655580 29319
