[{"OBJECT_NAME":"STARLINK-34956","OBJECT_ID":"2025-175A","EPOCH":"2026-02-15T14:42:42.169248","MEAN_MOTION":15.0565446,"ECCENTRICITY":0.0002079,"INCLINATION":97.601,"RA_OF_ASC_NODE":280.8223,"ARG_OF_PERICENTER":93.1095,"MEAN_ANOMALY":267.0369,"EPHEMERIS_TYPE":0,"CLASSIFICATION_TYPE":"U","NORAD_CAT_ID":65174,"ELEMENT_SET_NO":999,"REV_AT_EPOCH":2928,"BSTAR":0.00032043,"MEAN_MOTION_DOT":4.566e-5,"MEAN_MOTION_DDOT":0},{"OBJECT_NAME":"STARLINK-34949","OBJECT_ID":"2025-175B","EPOCH":"2026-02-15T14:38:44.672064","MEAN_MOTION":15.05650455,"ECCENTRICITY":0.00026393,"INCLINATION":97.602,"RA_OF_ASC_NODE":280.8284,"ARG_OF_PERICENTER":91.2702,"MEAN_ANOMALY":268.8827,"EPHEMERIS_TYPE":0,"CLASSIFICATION_TYPE":"U","NORAD_CAT_ID":65175,"ELEMENT_SET_NO":999,"REV_AT_EPOCH":2932,"BSTAR":0.00070294202,"MEAN_MOTION_DOT":0.00010097,"MEAN_MOTION_DDOT":0},{"OBJECT_NAME":"STARLINK-34707","OBJECT_ID":"2025-175C","EPOCH":"2026-02-15T14:34:45.107328","MEAN_MOTION":15.05644141,"ECCENTRICITY":0.000222,"INCLINATION":97.6016,"RA_OF_ASC_NODE":280.8292,"ARG_OF_PERICENTER":100.9979,"MEAN_ANOMALY":259.1497,"EPHEMERIS_TYPE":0,"CLASSIFICATION_TYPE":"U","NORAD_CAT_ID":65176,"ELEMENT_SET_NO":999,"REV_AT_EPOCH":2931,"BSTAR":0.00054219,"MEAN_MOTION_DOT":7.77e-5,"MEAN_MOTION_DDOT":0},{"OBJECT_NAME":"STARLINK-34967","OBJECT_ID":"2025-175D","EPOCH":"2026-02-15T14:30:44.753760","MEAN_MOTION":15.05654209,"ECCENTRICITY":0.0001955,"INCLINATION":97.6019,"RA_OF_ASC_NODE":280.834,"ARG_OF_PERICENTER":71.7065,"MEAN_ANOMALY":288.4374,"EPHEMERIS_TYPE":0,"CLASSIFICATION_TYPE":"U","NORAD_CAT_ID":65177,"ELEMENT_SET_NO":999,"REV_AT_EPOCH":2931,"BSTAR":0.00022295,"MEAN_MOTION_DOT":3.158e-5,"MEAN_MOTION_DDOT":0},{"OBJECT_NAME":"STARLINK-34929","OBJECT_ID":"2025-175E","EPOCH":"2026-02-15T14:26:45.289248","MEAN_MOTION":15.05660111,"ECCENTRICITY":0.0001312,"INCLINATION":97.6022,"RA_OF_ASC_NODE":280.8372,"ARG_OF_PERICENTER":95.5406,"MEAN_ANOMALY":264.597,"EPHEMERIS_TYPE":0,"CLASSIFICATION_TYPE":"U","NORAD_CAT_ID":65178,"ELEMENT_SET_NO":999,"REV_AT_EPOCH":2931,"BSTAR":0.00035738,"MEAN_MOTION_DOT":5.101e-5,"MEAN_MOTION_DDOT":0},{"OBJECT_NAME":"STARLINK-34932","OBJECT_ID":"2025-175F","EPOCH":"2026-02-15T22:17:16.752768","MEAN_MOTION":15.05664858,"ECCENTRICITY":0.0001787,"INCLINATION":97.6026,"RA_OF_ASC_NODE":281.173,"ARG_OF_PERICENTER":86.7059,"MEAN_ANOMALY":273.4372,"EPHEMERIS_TYPE":0,"CLASSIFICATION_TYPE":"U","NORAD_CAT_ID":65179,"ELEMENT_SET_NO":999,"REV_AT_EPOCH":2936,"BSTAR":0.00050979511,"MEAN_MOTION_DOT":7.306e-5,"MEAN_MOTION_DDOT":0},{"OBJECT_NAME":"STARLINK-34862","OBJECT_ID":"2025-175G","EPOCH":"2026-02-15T14:14:49.187040","MEAN_MOTION":15.05638264,"ECCENTRICITY":0.0002086,"INCLINATION":97.603,"RA_OF_ASC_NODE":280.8489,"ARG_OF_PERICENTER":83.4598,"MEAN_ANOMALY":276.6866,"EPHEMERIS_TYPE":0,"CLASSIFICATION_TYPE":"U","NORAD_CAT_ID":65180,"ELEMENT_SET_NO":999,"REV_AT_EPOCH":2931,"BSTAR":0.00058514,"MEAN_MOTION_DOT":8.39e-5,"MEAN_MOTION_DDOT":0},{"OBJECT_NAME":"STARLINK-34942","OBJECT_ID":"2025-175H","EPOCH":"2026-02-15T22:21:16.470432","MEAN_MOTION":15.05655026,"ECCENTRICITY":0.00017163,"INCLINATION":97.6023,"RA_OF_ASC_NODE":281.1691,"ARG_OF_PERICENTER":83.8281,"MEAN_ANOMALY":276.3141,"EPHEMERIS_TYPE":0,"CLASSIFICATION_TYPE":"U","NORAD_CAT_ID":65181,"ELEMENT_SET_NO":999,"REV_AT_EPOCH":2933,"BSTAR":0.00027348656,"MEAN_MOTION_DOT":3.888e-5,"MEAN_MOTION_DDOT":0},{"OBJECT_NAME":"STARLINK-34944","OBJECT_ID":"2025-175J","EPOCH":"2026-02-15T14:10:49.007136","MEAN_MOTION":15.05643484,"ECCENTRICITY":0.0002083,"INCLINATION":97.6032,"RA_OF_ASC_NODE":280.8529,"ARG_OF_PERICENTER":85.748,"MEAN_ANOMALY":274.3985,"EPHEMERIS_TYPE":0,"CLASSIFICATION_TYPE":"U","NORAD_CAT_ID":65182,"ELEMENT_SET_NO":999,"REV_AT_EPOCH":2931,"BSTAR":0.00052927,"MEAN_MOTION_DOT":7.583e-5,"MEAN_MOTION_DDOT":0},{"OBJECT_NAME":"STARLINK-34939","OBJECT_ID":"2025-175K","EPOCH":"2026-02-15T14:06:49.387968","MEAN_MOTION":15.05661407,"ECCENTRICITY":0.0002454,"INCLINATION":97.6039,"RA_OF_ASC_NODE":280.8567,"ARG_OF_PERICENTER":81.5672,"MEAN_ANOMALY":278.5833,"EPHEMERIS_TYPE":0,"CLASSIFICATION_TYPE":"U","NORAD_CAT_ID":65183,"ELEMENT_SET_NO":999,"REV_AT_EPOCH":2928,"BSTAR":0.00028801,"MEAN_MOTION_DOT":4.099e-5,"MEAN_MOTION_DDOT":0},{"OBJECT_NAME":"STARLINK-34947","OBJECT_ID":"2025-175L","EPOCH":"2026-02-15T14:02:50.461728","MEAN_MOTION":15.05655351,"ECCENTRICITY":0.0003147,"INCLINATION":97.6039,"RA_OF_ASC_NODE":280.8601,"ARG_OF_PERICENTER":70.622,"MEAN_ANOMALY":289.5347,"EPHEMERIS_TYPE":0,"CLASSIFICATION_TYPE":"U","NORAD_CAT_ID":65184,"ELEMENT_SET_NO":999,"REV_AT_EPOCH":2931,"BSTAR":0.00031788,"MEAN_MOTION_DOT":4.53e-5,"MEAN_MOTION_DDOT":0},{"OBJECT_NAME":"STARLINK-34945","OBJECT_ID":"2025-175M","EPOCH":"2026-02-15T13:58:50.682720","MEAN_MOTION":15.05667198,"ECCENTRICITY":0.0002373,"INCLINATION":97.6048,"RA_OF_ASC_NODE":280.8643,"ARG_OF_PERICENTER":79.1334,"MEAN_ANOMALY":281.016,"EPHEMERIS_TYPE":0,"CLASSIFICATION_TYPE":"U","NORAD_CAT_ID":65185,"ELEMENT_SET_NO":999,"REV_AT_EPOCH":2931,"BSTAR":0.00055332,"MEAN_MOTION_DOT":7.936e-5,"MEAN_MOTION_DDOT":0},{"OBJECT_NAME":"STARLINK-34965","OBJECT_ID":"2025-175N","EPOCH":"2026-02-15T13:50:53.587104","MEAN_MOTION":15.05657698,"ECCENTRICITY":0.0002115,"INCLINATION":97.6039,"RA_OF_ASC_NODE":280.8725,"ARG_OF_PERICENTER":88.9734,"MEAN_ANOMALY":271.1735,"EPHEMERIS_TYPE":0,"CLASSIFICATION_TYPE":"U","NORAD_CAT_ID":65186,"ELEMENT_SET_NO":999,"REV_AT_EPOCH":2931,"BSTAR":0.00076824,"MEAN_MOTION_DOT":0.00011044,"MEAN_MOTION_DDOT":0},{"OBJECT_NAME":"STARLINK-34915","OBJECT_ID":"2025-175P","EPOCH":"2026-02-15T13:54:52.855488","MEAN_MOTION":15.05672364,"ECCENTRICITY":0.0002563,"INCLINATION":97.6041,"RA_OF_ASC_NODE":280.8685,"ARG_OF_PERICENTER":69.9574,"MEAN_ANOMALY":290.1928,"EPHEMERIS_TYPE":0,"CLASSIFICATION_TYPE":"U","NORAD_CAT_ID":65187,"ELEMENT_SET_NO":999,"REV_AT_EPOCH":2931,"BSTAR":0.00053265,"MEAN_MOTION_DOT":7.638e-5,"MEAN_MOTION_DDOT":0},{"OBJECT_NAME":"STARLINK-34972","OBJECT_ID":"2025-175Q","EPOCH":"2026-02-15T16:58:17.516352","MEAN_MOTION":15.05653908,"ECCENTRICITY":0.00027274,"INCLINATION":97.604,"RA_OF_ASC_NODE":281.0073,"ARG_OF_PERICENTER":77.3051,"MEAN_ANOMALY":282.8481,"EPHEMERIS_TYPE":0,"CLASSIFICATION_TYPE":"U","NORAD_CAT_ID":65188,"ELEMENT_SET_NO":999,"REV_AT_EPOCH":2930,"BSTAR":0.0003323949,"MEAN_MOTION_DOT":4.739e-5,"MEAN_MOTION_DDOT":0},{"OBJECT_NAME":"STARLINK-34866","OBJECT_ID":"2025-175R","EPOCH":"2026-02-15T13:42:54.501696","MEAN_MOTION":15.0565558,"ECCENTRICITY":0.0002693,"INCLINATION":97.6037,"RA_OF_ASC_NODE":280.8799,"ARG_OF_PERICENTER":86.883,"MEAN_ANOMALY":273.2704,"EPHEMERIS_TYPE":0,"CLASSIFICATION_TYPE":"U","NORAD_CAT_ID":65189,"ELEMENT_SET_NO":999,"REV_AT_EPOCH":2931,"BSTAR":0.00028663,"MEAN_MOTION_DOT":4.078e-5,"MEAN_MOTION_DDOT":0}]
